CUTE-1 (CO-55)          
1 27844U 03031E   20075.79421881  .00000035  00000-0  35533-4 0  9997
2 27844  98.6847  84.9319 0009223 332.6246  27.4444 14.22225873866826
CUBESAT XI-IV (CO-57)   
1 27848U 03031J   20075.72334216  .00000025  00000-0  31172-4 0  9993
2 27848  98.6918  85.4094 0009354 345.6100  14.4809 14.21814313866624
CUBESAT XI-V            
1 28895U 05043F   20075.83186235  .00000111  00000-0  30273-4 0  9996
2 28895  97.9931 214.8941 0016187 211.9958 148.0263 14.63745904766915
CUTE-1.7+APD II (CO-65) 
1 32785U 08021C   20075.75412551  .00000174  00000-0  24332-4 0  9990
2 32785  97.5679  67.9232 0014631  84.7751 275.5135 14.88430747643935
AAUSAT-II               
1 32788U 08021F   20075.81699739  .00000377  00000-0  39475-4 0  9994
2 32788  97.4932  84.4757 0012039  17.8517 342.3125 14.94971706645321
DELFI-C3 (DO-64)        
1 32789U 08021G   20075.61857032  .00001044  00000-0  72704-4 0  9999
2 32789  97.4305 121.6538 0010448 277.8552  82.1490 15.07515681647671
SEEDS II (CO-66)        
1 32791U 08021J   20075.78217767  .00000203  00000-0  25874-4 0  9997
2 32791  97.5384  74.0882 0014677  58.5661 301.6991 14.90990844644422
SWISSCUBE               
1 35932U 09051B   20075.02444857  .00000103  00000-0  34261-4 0  9999
2 35932  98.6060 254.2856 0008525  61.6548 298.5507 14.56366687556087
BEESAT-1                
1 35933U 09051C   20075.76750181  .00000085  00000-0  30269-4 0  9994
2 35933  98.6070 256.9029 0006854  72.1533 288.0411 14.56445928556347
ITUPSAT1                
1 35935U 09051E   20075.70746146  .00000062  00000-0  25435-4 0  9990
2 35935  98.6178 257.0534 0009152  69.9048 290.3133 14.55595349556068
TISAT 1                 
1 36799U 10035E   20075.50358962  .00000164  00000-0  22581-4 0  9998
2 36799  98.1842 242.2150 0010922 278.5274  81.4705 14.91291158524921
M-CUBED & EXP-1 PRIME   
1 37855U 11061F   20075.57959668  .00001225  00000-0  68295-4 0  9990
2 37855 101.7226 115.5961 0171477 353.5782   6.3232 15.06083775457078
AEROCUBE 4.5A           
1 38767U 12048K   20075.65597648  .00000464  00000-0  51593-4 0  9991
2 38767  64.6663 169.5945 0152125 168.0049 192.4755 14.92202196 27803
AEROCUBE 4.5B           
1 38768U 12048L   20075.56006609  .00000449  00000-0  47404-4 0  9993
2 38768  64.6664 140.0964 0140791 164.6093 195.9372 14.95840744 27833
STRAND-1                
1 39090U 13009E   20075.30553961  .00000025  00000-0  24001-4 0  9998
2 39090  98.4653 281.3819 0008718 197.9645 162.1234 14.35121181369188
SOMP                    
1 39134U 13015E   20075.67860027  .00001296  00000-0  66909-4 0  9992
2 39134  64.8622 222.0699 0036815 259.3414 100.3567 15.20817081381413
BEESAT-3                
1 39135U 13015F   20075.63122245  .00000900  00000-0  53019-4 0  9991
2 39135  64.8671 244.3880 0044303 261.5022  98.1082 15.17994723380979
BEESAT-2                
1 39136U 13015G   20075.83844021  .00000635  00000-0  41354-4 0  9991
2 39136  64.8662 248.3839 0029017 279.9419  79.8432 15.17375310380910
NEE-01 PEGASO           
1 39151U 13018B   20075.70556455  .00000121  00000-0  22888-4 0  9999
2 39151  97.9687 175.2002 0017965  47.8335 312.4400 14.80138124371818
ESTCUBE 1               
1 39161U 13021C   20075.69725176  .00000092  00000-0  22364-4 0  9996
2 39161  97.9670 160.6021 0009474 173.4345 186.6983 14.72289592368240
POPACS 1                
1 39268U 13055D   20075.84904010  .00002638  00000-0  70940-4 0  9995
2 39268  81.0033  35.0632 0620230 140.0772 224.7787 14.38641735334535
POPACS 2                
1 39269U 13055E   20075.71656686  .00001398  00000-0  40176-4 0  9995
2 39269  81.0122  71.0313 0678691 233.2744 120.4260 14.25076039332631
POPACS 3                
1 39270U 13055F   20075.75706926  .00001178  00000-0  36972-4 0  9999
2 39270  81.0135  91.3805 0709896 291.8953  60.8221 14.16654511311865
ZACUBE-1 (TSHEPISOSAT)  
1 39417U 13066B   20075.73825620  .00000147  00000-0  24920-4 0  9990
2 39417  97.5644  78.9836 0057797 224.1552 135.5041 14.81234625341168
WNISAT-1                
1 39423U 13066H   20075.87629093  .00000083  00000-0  26153-4 0  9997
2 39423  97.7989   3.7628 0174621 187.0354 172.8382 14.53099748334839
TRITON-1                
1 39427U 13066M   20075.75581602  .00000271  00000-0  50996-4 0  9992
2 39427  97.7147  41.9497 0114235  18.5525 341.9794 14.67960018338102
GOMX-1                  
1 39430U 13066Q   20075.80533796  .00000168  00000-0  38897-4 0  9994
2 39430  97.7818  20.0404 0152165 119.2924 242.3602 14.59358207336149
CUBEBUG-2 (LO-74)       
1 39440U 13066AA  20075.73268426  .00000164  00000-0  30011-4 0  9998
2 39440  97.6241  63.4531 0078672 284.8953  74.3555 14.75972508339958
NEE-02 KRYSAOR          
1 39441U 13066AB  20075.68152731  .00000114  00000-0  23451-4 0  9999
2 39441  97.6307  60.9804 0080305 293.5998  65.6794 14.74990301338585
FUNCUBE-1 (AO-73)       
1 39444U 13066AE  20075.72213233  .00000200  00000-0  30862-4 0  9992
2 39444  97.5596  81.1425 0057049 216.7082 143.0218 14.82078219340074
UWE-3                   
1 39446U 13066AG  20075.94942312  .00000149  00000-0  26533-4 0  9997
2 39446  97.5943  70.8519 0068454 254.5966 104.7676 14.78507203338753
AEROCUBE 5A             
1 39465U 13072D   20075.56733085  .00007757  00000-0  63269-3 0  9996
2 39465 120.4936 183.3231 0275171 147.7198 214.1017 14.75483238 27500
AEROCUBE 5B             
1 39466U 13072E   20075.64077392  .00009024  00000-0  62868-3 0  9991
2 39466 120.4903 215.3374 0246665 155.3588 205.9478 14.84965048 27630
BRITE-CA1 (TORONTO)     
1 40020U 14033L   20075.60404008  .00000049  00000-0  16758-4 0  9997
2 40020  97.7326 269.1745 0087708  13.1485 347.1978 14.66629216307000
DUCHIFAT-1              
1 40021U 14033M   20075.78701484  .00000209  00000-0  27066-4 0  9997
2 40021  97.9380   6.4823 0011570 233.1219 126.8939 14.90835028311938
NANOSATC-BR1            
1 40024U 14033Q   20075.75798042  .00000280  00000-0  34965-4 0  9998
2 40024  97.9242   3.1283 0010879 237.8250 122.1913 14.90014616311808
QB50P1                  
1 40025U 14033R   20075.44875761  .00000210  00000-0  28325-4 0  9995
2 40025  97.9133 359.7872 0011015 246.6006 113.4053 14.89086322311104
QB50P2                  
1 40032U 14033Y   20075.73712565  .00000225  00000-0  30222-4 0  9992
2 40032  97.9030 357.7418 0010498 241.7574 118.2583 14.88615617311040
PERSEUS-M2              
1 40037U 14033AD  20075.76597909  .00000066  00000-0  13696-4 0  9992
2 40037  97.8903 352.8132 0012959 258.8073 101.1686 14.86522787311249
PERSEUS-M1              
1 40039U 14033AF  20075.81895821  .00000077  00000-0  15011-4 0  9999
2 40039  97.8874 351.7337 0012812 256.2036 103.7754 14.86142839310667
POLYITAN-1              
1 40042U 14033AJ  20075.76475053  .00000281  00000-0  36009-4 0  9995
2 40042  97.9215   0.5701 0013296 235.4805 124.5156 14.88827322311561
TIGRISAT                
1 40043U 14033AK  20075.62853037  .00000080  00000-0  19275-4 0  9996
2 40043  97.7227 296.3469 0058734 302.7535  56.8022 14.74350236308221
AEROCUBE 6A             
1 40045U 14033AM  20075.90139822  .00000154  00000-0  29519-4 0  9992
2 40045  97.7475 301.6347 0056496 293.6221  65.9063 14.75532189308312
AEROCUBE 6B             
1 40046U 14033AN  20075.84244523  .00000190  00000-0  34643-4 0  9995
2 40046  97.7392 300.9531 0055718 292.8662  66.6671 14.75512400308681
UKUBE-1                 
1 40074U 14037F   20075.92937151  .00000197  00000-0  30757-4 0  9994
2 40074  98.4530 258.6975 0005494  68.0591 292.1205 14.84210568307885
BRITE-PL2 (HEWELIUSZ)   
1 40119U 14049B   20075.49322135  .00000110  00000-0  19439-4 0  9998
2 40119  97.8937 168.6553 0018609  59.0653 301.2388 14.84479334301844
FIREBIRD 4              
1 40378U 15003C   20075.89543988  .00001245  00000-0  52141-4 0  9998
2 40378  99.1076 117.0166 0123717 266.2559  92.4518 15.19734081283094
GRIFEX                  
1 40379U 15003D   20075.77406651  .00000945  00000-0  44107-4 0  9990
2 40379  99.1146 109.3182 0132404 290.0939  68.6081 15.16169096282651
EXOCUBE (CP10)          
1 40380U 15003E   20075.78439282  .00001026  00000-0  49554-4 0  9991
2 40380  99.1216 105.2434 0137503 303.8547  54.9656 15.14157005282379
AEROCUBE 8A             
1 40659U 15025J   20075.79832805  .00010548  00000-0  12476-3 0  9994
2 40659  55.0191   5.6995 0109466 293.4768  65.4792 15.54990203 28973
AEROCUBE 8B             
1 40660U 15025K   20075.47547585  .00011035  00000-0  12909-3 0  9992
2 40660  55.0162   5.3740 0108691 294.4717  64.5013 15.55292694 28934
TIANWANG 1C (TW-1C)     
1 40926U 15051B   20075.83499115  .00016221  00000-0  18467-3 0  9998
2 40926  97.0972 127.1612 0008566  85.2697 328.7757 15.62305202252395
TIANWANG 1A (TW-1A)     
1 40928U 15051D   20075.86351228  .00002286  00000-0  55274-4 0  9999
2 40928  97.1192 105.9514 0011375 158.1314  15.2988 15.42108614250944
EXACTVIEW 9             
1 40936U 15052G   20075.55020556  .00000788  00000-0  21130-4 0  9991
2 40936   6.0032 289.8703 0010040  11.7185 348.3176 14.76550191241323
AEROCUBE 5C             
1 40965U 15058B   20075.69797906 -.00000007  00000-0  19081-4 0  9991
2 40965  64.7780  67.8506 0168795 108.9400 253.0084 14.74487186 27481
AEROCUBE 7              
1 40966U 15058C   20075.76495049  .00000027  00000-0  22973-4 0  9998
2 40966  64.7782  66.2593 0167635 108.6233 253.3157 14.74779693 27498
ATHENOXAT 1             
1 41168U 15077C   20075.50390866  .00001816  00000-0  59740-4 0  9996
2 41168  14.9892  30.6381 0011452 260.2247  99.6781 15.14171236235081
GALASSIA                
1 41170U 15077E   20074.51724192  .00001756  00000-0  55843-4 0  9995
2 41170  14.9895  30.0451 0012721 272.6617  87.2248 15.14477470235009
VELOX-II                
1 41171U 15077F   20075.61623391  .00001406  00000-0  42087-4 0  9995
2 41171  14.9918  63.3634 0008829 189.7442 170.2707 15.11565526234803
